NORAD_CAT_ID,OBJECT_NAME,OBJECT_TYPE,EPOCH,MEAN_MOTION,ECCENTRICITY,INCLINATION,RA_OF_ASC_NODE,ARG_OF_PERICENTER,MEAN_ANOMALY,BSTAR,MEAN_MOTION_DOT,MEAN_MOTION_DDOT,TLE_LINE0,TLE_LINE1,TLE_LINE2,SEMIMAJOR_AXIS,PERIOD,APOGEE,PERIGEE,DECAYED
55754.0,STARLINK-5612,PAYLOAD,2024-02-21 04:29:49,14.98339347,0.0002696,70.0006,329.0903,267.73,92.355,0.00016974,1.933e-05,0.0,0 STARLINK-5612,1 55754U 23028P   24052.18738033  .00001933  00000-0  16974-3 0  9993,2 55754  70.0006 329.0903 0002696 267.7300  92.3550 14.98339347 54076,6950.164,96.106,573.903,570.155,0.0
55754.0,STARLINK-5612,PAYLOAD,2024-02-21 20:31:11,14.9832645,0.0002589,70.0012,327.4079,273.42,86.6663,8.596e-05,9.33e-06,0.0,0 STARLINK-5612,1 55754U 23028P   24052.85499009  .00000933  00000-0  85960-4 0  9995,2 55754  70.0012 327.4079 0002589 273.4200  86.6663 14.98326450 54176,6950.204,96.107,573.868,570.269,0.0
55754.0,STARLINK-5612,PAYLOAD,2024-02-21 22:07:19,14.98325237,0.0002678,70.0009,327.2393,271.5971,88.4881,5.1709e-05,5.24e-06,0.0,0 STARLINK-5612,1 55754U 23028P   24052.92175152  .00000524  00000-0  51709-4 0  9993,2 55754  70.0009 327.2393 0002678 271.5971  88.4881 14.98325237 54187,6950.208,96.107,573.934,570.211,0.0
55754.0,STARLINK-5612,PAYLOAD,2024-02-22 10:56:24,14.98307331,0.0002585,70.0012,325.8933,283.7446,76.3425,0.00041355,4.842e-05,0.0,0 STARLINK-5612,1 55754U 23028P   24053.45583767  .00004842  00000-0  41355-3 0  9999,2 55754  70.0012 325.8933 0002585 283.7446  76.3425 14.98307331 54268,6950.263,96.108,573.925,570.331,0.0
55754.0,STARLINK-5612,PAYLOAD,2024-02-22 18:57:03,14.9833624,0.0002859,70.0003,325.0513,272.657,87.4262,-5.7396e-05,-7.78e-06,0.0,0 STARLINK-5612,1 55754U 23028P   24053.78962715 -.00000778  00000-0 -57396-4 0  9998,2 55754  70.0003 325.0513 0002859 272.6570  87.4262 14.98336240 54312,6950.174,96.107,574.026,570.052,0.0
55754.0,STARLINK-5612,PAYLOAD,2024-02-22 22:09:19,14.98338021,0.0002806,70.0005,324.7148,270.7337,89.3501,-2.4461e-05,-3.85e-06,0.0,0 STARLINK-5612,1 55754U 23028P   24053.92314442 -.00000385  00000-0 -24461-4 0  9993,2 55754  70.0005 324.7148 0002806 270.7337  89.3501 14.98338021 54334,6950.168,96.106,573.983,570.083,0.0
55754.0,STARLINK-5612,PAYLOAD,2024-02-23 02:57:43,14.98342479,0.0002737,70.0005,324.2102,267.5338,92.5508,5.6133e-06,-2.6e-07,0.0,0 STARLINK-5612,1 55754U 23028P   24054.12341937 -.00000026  00000-0  56133-5 0  9998,2 55754  70.0005 324.2102 0002737 267.5338  92.5508 14.98342479 54365,6950.154,96.106,573.922,570.117,0.0
55754.0,STARLINK-5612,PAYLOAD,2024-02-23 10:58:24,14.98331358,0.000215,70.0017,323.3677,264.1447,95.9467,2.4683e-05,2.02e-06,0.0,0 STARLINK-5612,1 55754U 23028P   24054.45722578  .00000202  00000-0  24683-4 0  9997,2 55754  70.0017 323.3677 0002150 264.1447  95.9467 14.98331358 54419,6950.189,96.107,573.548,570.559,0.0
55754.0,STARLINK-5612,PAYLOAD,2024-02-23 22:11:21,14.98325658,0.0002705,70.0005,322.1908,269.6104,90.4745,-1.3492e-05,-2.54e-06,0.0,0 STARLINK-5612,1 55754U 23028P   24054.92454867 -.00000254  00000-0 -13492-4 0  9997,2 55754  70.0005 322.1908 0002705 269.6104  90.4745 14.98325658 54488,6950.206,96.107,573.951,570.191,0.0
55754.0,STARLINK-5612,PAYLOAD,2024-02-24 11:00:25,14.98323408,0.0002772,70.0004,320.8423,270.6773,89.4069,-7.41e-05,-9.77e-06,0.0,0 STARLINK-5612,1 55754U 23028P   24055.45863166 -.00000977  00000-0 -74100-4 0  9997,2 55754  70.0004 320.8423 0002772 270.6773  89.4069 14.98323408 54569,6950.213,96.107,574.005,570.152,0.0
55754.0,STARLINK-5612,PAYLOAD,2024-02-24 17:24:57,14.98327056,0.0002737,70.0001,320.1694,270.1782,89.9064,-9.3462e-05,-1.208e-05,0.0,0 STARLINK-5612,1 55754U 23028P   24055.72567076 -.00001208  00000-0 -93462-4 0  9998,2 55754  70.0001 320.1694 0002737 270.1782  89.9064 14.98327056 54603,6950.202,96.107,573.969,570.165,0.0
55754.0,STARLINK-5612,PAYLOAD,2024-02-25 04:37:53,14.98338409,0.0002744,69.9999,318.9915,269.4035,90.681,2.6675e-05,2.25e-06,0.0,0 STARLINK-5612,1 55754U 23028P   24056.19297945  .00000225  00000-0  26675-4 0  9993,2 55754  69.9999 318.9915 0002744 269.4035  90.6810 14.98338409 54676,6950.167,96.106,573.939,570.125,0.0
55754.0,STARLINK-5612,PAYLOAD,2024-02-25 11:02:26,14.98327001,0.00029,69.9999,318.3185,268.9335,91.1492,-8.3193e-05,-1.085e-05,0.0,0 STARLINK-5612,1 55754U 23028P   24056.46002809 -.00001085  00000-0 -83193-4 0  9991,2 55754  69.9999 318.3185 0002900 268.9335  91.1492 14.98327001 54713,6950.202,96.107,574.083,570.052,0.0
55754.0,STARLINK-5612,PAYLOAD,2024-02-25 22:15:22,14.98328536,0.0002956,69.9997,317.14,268.892,91.19,9.792e-05,1.076e-05,0.0,0 STARLINK-5612,1 55754U 23028P   24056.92734274  .00001076  00000-0  97920-4 0  9991,2 55754  69.9997 317.1400 0002956 268.8920  91.1900 14.98328536 54783,6950.197,96.107,574.117,570.008,0.0
55754.0,STARLINK-5612,PAYLOAD,2024-02-26 03:03:46,14.9833731,0.0002871,69.9997,316.6346,267.8276,92.2554,0.00013434,1.511e-05,0.0,0 STARLINK-5612,1 55754U 23028P   24057.12761575  .00001511  00000-0  13434-3 0  9999,2 55754  69.9997 316.6346 0002871 267.8276  92.2554 14.98337310 54816,6950.17,96.107,574.031,570.04,0.0
55754.0,STARLINK-5612,PAYLOAD,2024-02-26 09:28:19,14.98319781,0.0002972,69.9995,315.9618,268.6537,91.4281,-0.00014284,-1.796e-05,0.0,0 STARLINK-5612,1 55754U 23028P   24057.39467149 -.00001796  00000-0 -14284-3 0  9999,2 55754  69.9995 315.9618 0002972 268.6537  91.4281 14.98319781 54853,6950.224,96.108,574.155,570.024,0.0
55754.0,STARLINK-5612,PAYLOAD,2024-02-26 22:17:24,14.98321143,0.0002912,69.9996,314.6149,272.0042,88.0784,-4.3922e-05,-6.17e-06,0.0,0 STARLINK-5612,1 55754U 23028P   24057.92875118 -.00000617  00000-0 -43922-4 0  9990,2 55754  69.9996 314.6149 0002912 272.0042  88.0784 14.98321143 54937,6950.22,96.108,574.109,570.061,0.0
55754.0,STARLINK-5612,PAYLOAD,2024-02-27 03:05:47,14.98329826,0.0002897,69.9995,314.1098,272.0871,87.9957,-1.8153e-05,-3.1e-06,0.0,0 STARLINK-5612,1 55754U 23028P   24058.12902541 -.00000310  00000-0 -18153-4 0  9992,2 55754  69.9995 314.1098 0002897 272.0871  87.9957 14.98329826 54965,6950.193,96.107,574.072,570.045,0.0
55754.0,STARLINK-5612,PAYLOAD,2024-02-27 09:30:20,14.98330494,0.0002908,69.9994,313.4364,272.0878,87.9948,-6.1838e-05,-8.31e-06,0.0,0 STARLINK-5612,1 55754U 23028P   24058.39606585 -.00000831  00000-0 -61838-4 0  9996,2 55754  69.9994 313.4364 0002908 272.0878  87.9948 14.98330494 55001,6950.191,96.107,574.077,570.035,0.0
55754.0,STARLINK-5612,PAYLOAD,2024-02-27 22:19:24,14.98346112,0.000297,69.9995,312.0894,274.1282,85.9538,-0.00026234,-3.223e-05,0.0,0 STARLINK-5612,1 55754U 23028P   24058.93013983 -.00003223  00000-0 -26234-3 0  9998,2 55754  69.9995 312.0894 0002970 274.1282  85.9538 14.98346112 55081,6950.143,96.106,574.072,569.944,0.0
55754.0,STARLINK-5612,PAYLOAD,2024-02-28 03:07:48,14.98326277,0.0002437,69.9994,311.5849,266.7973,93.2907,0.00022128,2.548e-05,0.0,0 STARLINK-5612,1 55754U 23028P   24059.13042185  .00002548  00000-0  22128-3 0  9992,2 55754  69.9994 311.5849 0002437 266.7973  93.2907 14.98326277 55112,6950.204,96.107,573.763,570.376,0.0
55754.0,STARLINK-5612,PAYLOAD,2024-02-28 09:32:20,14.98336133,0.0002857,69.9994,310.9116,273.514,86.5692,-4.1016e-05,-5.82e-06,0.0,0 STARLINK-5612,1 55754U 23028P   24059.39746065 -.00000582  00000-0 -41016-4 0  9994,2 55754  69.9994 310.9116 0002857 273.5140  86.5692 14.98336133 55152,6950.174,96.107,574.025,570.053,0.0
55754.0,STARLINK-5612,PAYLOAD,2024-02-28 20:45:17,14.98324387,0.0002865,69.9994,309.7332,276.1211,83.9621,9.584e-05,1.051e-05,0.0,0 STARLINK-5612,1 55754U 23028P   24059.86478474  .00001051  00000-0  95840-4 0  9996,2 55754  69.9994 309.7332 0002865 276.1211  83.9621 14.98324387 55224,6950.21,96.107,574.066,570.084,0.0
55754.0,STARLINK-5612,PAYLOAD,2024-02-29 03:09:49,14.98328586,0.0002858,69.9993,309.06,275.4375,84.6458,6.9756e-05,7.39e-06,0.0,0 STARLINK-5612,1 55754U 23028P   24060.13182315  .00000739  00000-0  69756-4 0  9993,2 55754  69.9993 309.0600 0002858 275.4375  84.6458 14.98328586 55264,6950.197,96.107,574.049,570.076,0.0
55754.0,STARLINK-5612,PAYLOAD,2024-02-29 09:34:21,14.98329655,0.0002874,69.9993,308.3866,274.2592,85.8238,1.6391e-05,1.03e-06,0.0,0 STARLINK-5612,1 55754U 23028P   24060.39886378  .00000103  00000-0  16391-4 0  9993,2 55754  69.9993 308.3866 0002874 274.2592  85.8238 14.98329655 55308,6950.194,96.107,574.056,570.061,0.0
55754.0,STARLINK-5612,PAYLOAD,2024-02-29 22:23:27,14.98238344,0.0002391,69.9997,307.041,276.7245,83.3641,0.0015371,0.00018251,0.0,0 STARLINK-5612,1 55754U 23028P   24060.93295954  .00018251  00000-0  15371-2 0  9995,2 55754  69.9997 307.0410 0002391 276.7245  83.3641 14.98238344 55382,6950.476,96.113,574.003,570.679,0.0
55754.0,STARLINK-5612,PAYLOAD,2024-03-01 03:11:51,14.9826536,0.0002401,69.9996,306.5361,269.46,90.6284,0.0011136,0.00013197,0.0,0 STARLINK-5612,1 55754U 23028P   24061.13324033  .00013197  00000-0  11136-2 0  9998,2 55754  69.9996 306.5361 0002401 269.4600  90.6284 14.98265360 55412,6950.393,96.111,573.927,570.589,0.0
55754.0,STARLINK-5612,PAYLOAD,2024-03-01 09:36:22,14.98331701,0.0002809,69.9997,305.8627,269.6018,90.4819,-2.0288e-05,-3.35e-06,0.0,0 STARLINK-5612,1 55754U 23028P   24061.40026295 -.00000335  00000-0 -20288-4 0  9999,2 55754  69.9997 305.8627 0002809 269.6018  90.4819 14.98331701 55456,6950.188,96.107,574.005,570.1,0.0
55754.0,STARLINK-5612,PAYLOAD,2024-03-01 20:49:19,14.98330621,0.0002858,69.9997,304.6842,269.226,90.8572,2.4854e-05,2.04e-06,0.0,0 STARLINK-5612,1 55754U 23028P   24061.86758179  .00000204  00000-0  24854-4 0  9998,2 55754  69.9997 304.6842 0002858 269.2260  90.8572 14.98330621 55529,6950.191,96.107,574.042,570.07,0.0
55754.0,STARLINK-5612,PAYLOAD,2024-03-02 01:37:42,14.98334403,0.000285,69.9993,304.179,269.098,90.9852,4.9497e-05,4.98e-06,0.0,0 STARLINK-5612,1 55754U 23028P   24062.06785831  .00000498  00000-0  49497-4 0  9991,2 55754  69.9993 304.1790 0002850 269.0980  90.9852 14.98334403 55558,6950.179,96.107,574.025,570.063,0.0
